{
    "links": {
        "self": "http://www.neowsapp.com/rest/v1/neo/3621021?api_key=iIulBulltgU6a56xZRHN4H3l9WmuAYTsLGpBGhQ2"
    },
    "id": "3621021",
    "neo_reference_id": "3621021",
    "name": "(2012 XM134)",
    "designation": "2012 XM134",
    "nasa_jpl_url": "http://ssd.jpl.nasa.gov/sbdb.cgi?sstr=3621021",
    "absolute_magnitude_h": 22.7,
    "estimated_diameter": {
        "kilometers": {
            "estimated_diameter_min": 0.0766575574,
            "estimated_diameter_max": 0.1714115092
        },
        "meters": {
            "estimated_diameter_min": 76.6575573531,
            "estimated_diameter_max": 171.4115092306
        },
        "miles": {
            "estimated_diameter_min": 0.0476327831,
            "estimated_diameter_max": 0.1065101409
        },
        "feet": {
            "estimated_diameter_min": 251.5011804664,
            "estimated_diameter_max": 562.3737359442
        }
    },
    "is_potentially_hazardous_asteroid": false,
    "close_approach_data": [
        {
            "close_approach_date": "2012-11-18",
            "close_approach_date_full": "2012-Nov-18 14:02",
            "epoch_date_close_approach": 1353247320000,
            "relative_velocity": {
                "kilometers_per_second": "10.7051462825",
                "kilometers_per_hour": "38538.526617103",
                "miles_per_hour": "23946.3417193882"
            },
            "miss_distance": {
                "astronomical": "0.0672894898",
                "lunar": "26.1756115322",
                "kilometers": "10066364.347466726",
                "miles": "6254948.7596877788"
            },
            "orbiting_body": "Earth"
        }
    ],
    "orbital_data": {
        "orbit_id": "12",
        "orbit_determination_date": "2017-04-06 08:47:35",
        "first_observation_date": "2012-12-13",
        "last_observation_date": "2013-01-07",
        "data_arc_in_days": 25,
        "observations_used": 45,
        "orbit_uncertainty": "8",
        "minimum_orbit_intersection": ".0357081",
        "jupiter_tisserand_invariant": "2.706",
        "epoch_osculation": "2456279.5",
        "eccentricity": ".6997360543048473",
        "semi_major_axis": "3.324354628023334",
        "inclination": "2.120503248081054",
        "ascending_node_longitude": "311.4309961867149",
        "orbital_period": "2213.907371326704",
        "perihelion_distance": ".9981838375002278",
        "perihelion_argument": "80.95839556557539",
        "aphelion_distance": "5.65052541854644",
        "perihelion_time": "2456232.827041069494",
        "mean_anomaly": "7.589416536841489",
        "mean_motion": ".1626084291793413",
        "equinox": "J2000",
        "orbit_class": {
            "orbit_class_type": "APO",
            "orbit_class_description": "Near-Earth asteroid orbits which cross the Earth’s orbit similar to that of 1862 Apollo",
            "orbit_class_range": "a (semi-major axis) > 1.0 AU; q (perihelion) < 1.017 AU"
        }
    },
    "is_sentry_object": false
}